KUIPER-00089            
1 64834U 25151U   25279.93260199  .00026346  00000+0  11994-2 0  9999
2 64834  51.8884 249.9303 0005728 136.7121 223.4310 15.20504806 12687
KUIPER-00090            
1 64835U 25151V   25277.43198830  .00050616  00000+0  13879-2 0  9996
2 64835  51.8773 260.9164 0008852  88.0198 272.1802 15.36751412 12318
KUIPER-00091            
1 64836U 25151W   25279.94928183 -.00252739  00000+0 -10983-1 0  9991
2 64836  51.8779 249.2081 0009314  94.8885 265.3159 15.22864768 12699
KUIPER-00092            
1 64837U 25151X   25280.00001157 -.01155653  00000+0 -87855-1 0  9994
2 64837  51.8878 251.7569 0008893  81.9987 323.9773 15.04820147  5711
KUIPER-00093            
1 64838U 25151Y   25280.00001157 -.00887840  00000+0 -84021-1 0  9996
2 64838  51.8941 253.4891 0015043  99.5785  54.3263 14.96130793  5031
KUIPER-00094            
1 64839U 25151Z   25279.09605650  .00035381  00000+0  16359-2 0  9995
2 64839  51.8839 253.9531 0009058  98.6005 261.6001 15.19800549 12555
KUIPER-00081            
1 65132U 25171A   25279.98260676  .00045596  00000+0  12250-2 0  9992
2 65132  51.8753 132.1100 0004539 322.6106  37.4564 15.37457503  9937
KUIPER-00088            
1 65133U 25171B   25280.00001157 -.00110998  00000+0 -41467-2 0  9998
2 65133  51.8790 132.3800 0007139 314.4054 334.4065 15.27226492  5165
